STARLINK-36673          
1 67660U 26022N   26173.54948268  .00014923  00000+0  46344-3 0  9994
2 67660  97.2882 206.4174 0000686 104.1792 255.9527 15.33460056 21642
STARLINK-36674          
1 67661U 26022P   26173.34556306  .00016462  00000+0  51105-3 0  9992
2 67661  97.2861 206.2365 0000962  90.5238 269.6115 15.33449778 21610
STARLINK-36700          
1 67662U 26022Q   26173.32924942  .00010563  00000+0  32904-3 0  9998
2 67662  97.2843 206.2588 0001002  98.4203 261.7154 15.33446860 21618
STARLINK-36675          
1 67663U 26022R   26173.33740513  .00010028  00000+0  31250-3 0  9999
2 67663  97.2865 206.2473 0000542 100.4790 259.6514 15.33449706 21617
STARLINK-36404          
1 67664U 26022S   26173.51957822  .00018374  00000+0  57000-3 0  9996
2 67664  97.2849 206.3063 0000826  75.7296 284.4039 15.33449690 21638
STARLINK-36399          
1 67665U 26022T   26173.06007203  .00013554  00000+0  42143-3 0  9993
2 67665  97.2846 205.8599 0001195 112.1643 247.9726 15.33444544 21568
STARLINK-36365          
1 67666U 26022U   26173.70718726  .00020220  00000+0  62679-3 0  9998
2 67666  97.2839 206.5109 0000680  74.7636 285.3682 15.33454452 21666
STARLINK-36622          
1 67667U 26022V   26173.37276382  .00006669  00000+0  20891-3 0  9990
2 67667  97.2857 206.1996 0001107 100.2032 259.9336 15.33417513 21612
STARLINK-36625          
1 67668U 26022W   26173.36459282  .00016274  00000+0  50522-3 0  9999
2 67668  97.2866 206.2114 0000569 168.2442 191.8814 15.33452500 21616
STARLINK-36639          
1 67669U 26022X   26173.35644007  .00009579  00000+0  29876-3 0  9998
2 67669  97.2841 206.2230 0001642  83.0653 277.0776 15.33431761 21610
STARLINK-36596          
1 67670U 26022Y   26173.34829065  .00004498  00000+0  14166-3 0  9999
2 67670  97.2867 206.2315 0000601 109.6186 250.5121 15.33425290 21614
STARLINK-36297          
1 67671U 26022Z   26173.33196218  .00015487  00000+0  48090-3 0  9999
2 67671  97.2842 206.2563 0001052 100.8606 259.2756 15.33455382 21619
STARLINK-36616          
1 67672U 26022AA  26173.34012566  .00009841  00000+0  30672-3 0  9998
2 67672  97.2844 206.2434 0001123  89.3471 270.7901 15.33446592 21612
STARLINK-36748          
1 67693U 26025A   26173.73515075  .00023574  00000+0  73004-3 0  9995
2 67693  97.2857 284.9807 0000881 103.2576 256.8765 15.33454305 22118
STARLINK-36753          
1 67694U 26025B   26173.59106544  .00031542  00000+0  97452-3 0  9994
2 67694  97.2824 284.7166 0000441  27.0010 333.1256 15.33470252 22097
STARLINK-36750          
1 67695U 26025C   26173.83031192  .00042760  00000+0  13178-2 0  9994
2 67695  97.2837 285.0065 0000451  85.7223 274.4071 15.33481751 22124
STARLINK-36401          
1 67696U 26025D   26173.74603051  .00017359  00000+0  53883-3 0  9998
2 67696  97.2832 284.9665 0000952  82.9567 277.1784 15.33442338 22118
STARLINK-36704          
1 67697U 26025E   26173.55841830  .00018626  00000+0  57785-3 0  9990
2 67697  97.2842 284.7629 0000249 257.4260 102.6955 15.33444905 22086
STARLINK-36697          
1 67698U 26025F   26173.55298187  .00018545  00000+0  57531-3 0  9991
2 67698  97.2857 284.7741 0001040  90.9000 269.2362 15.33447094 22084
STARLINK-36716          
1 67699U 26025G   26173.58560957  .00017587  00000+0  54574-3 0  9991
2 67699  97.2835 284.7261 0000555  66.6702 293.4599 15.33449921 22090
STARLINK-36712          
1 67700U 26025H   26173.76236307  .00020081  00000+0  62298-3 0  9998
2 67700  97.2821 284.9441 0000435 111.9237 248.2052 15.33429835 22111
STARLINK-36713          
1 67701U 26025J   26173.77865662  .00017198  00000+0  53370-3 0  9998
2 67701  97.2816 284.9225 0000333 122.9450 237.1825 15.33452928 22127
STARLINK-36695          
1 67702U 26025K   26173.73787088  .00021750  00000+0  67394-3 0  9990
2 67702  97.2842 284.9785 0000620 323.0111  37.1089 15.33452957 22116
STARLINK-36630          
1 67703U 26025L   26173.55570062  .00020127  00000+0  62404-3 0  9997
2 67703  97.2859 284.7670 0001005  89.8231 270.3127 15.33447965 22087
STARLINK-36338          
1 67704U 26025M   26173.58832747  .00018284  00000+0  56715-3 0  9991
2 67704  97.2826 284.7221 0000568  41.4140 318.7146 15.33453633 22087
STARLINK-36316          
1 67705U 26025N   26173.58017000  .00021058  00000+0  65286-3 0  9995
2 67705  97.2840 284.7316 0000272  79.3992 280.7281 15.33442292 22083
STARLINK-36707          
1 67706U 26025P   26173.76777956  .00016370  00000+0  50840-3 0  9990
2 67706  97.2845 284.9387 0000553 101.8335 258.2970 15.33437683 22110
STARLINK-36645          
1 67707U 26025Q   26173.27292676  .00019576  00000+0  60740-3 0  9999
2 67707  97.2841 284.5392 0000516 106.1788 253.9512 15.33430216 22049
STARLINK-36287          
1 67708U 26025R   26173.28380345  .00021509  00000+0  66669-3 0  9997
2 67708  97.2852 284.5289 0000134 103.7381 256.3877 15.33444535 22056
STARLINK-36698          
1 67709U 26025S   26173.73243366  .00027568  00000+0  85288-3 0  9998
2 67709  97.2851 284.9888 0000356 347.7859  12.3375 15.33454701 22117
