OBJECT_NAME,OBJECT_ID,EPOCH,MEAN_MOTION,ECCENTRICITY,INCLINATION,RA_OF_ASC_NODE,ARG_OF_PERICENTER,MEAN_ANOMALY,EPHEMERIS_TYPE,CLASSIFICATION_TYPE,NORAD_CAT_ID,ELEMENT_SET_NO,REV_AT_EPOCH,BSTAR,MEAN_MOTION_DOT,MEAN_MOTION_DDOT
STARLINK-36673,2026-022N,2026-06-22T13:11:15.303552,15.33460056,.00006866,97.2882,206.4174,104.1792,255.9527,0,U,67660,999,2164,.46344441E-3,.14923E-3,0
STARLINK-36674,2026-022P,2026-06-22T08:17:36.648384,15.33449778,.00009629,97.2861,206.2365,90.5238,269.6115,0,U,67661,999,2161,.51105104E-3,.16462E-3,0
STARLINK-36700,2026-022Q,2026-06-22T07:54:07.149888,15.33446860,.00010021,97.2843,206.2588,98.4203,261.7154,0,U,67662,999,2161,.32903963E-3,.10563E-3,0
STARLINK-36675,2026-022R,2026-06-22T08:05:51.803232,15.33449706,.00005423,97.2865,206.2473,100.4790,259.6514,0,U,67663,999,2161,.31249512E-3,.10028E-3,0
STARLINK-36404,2026-022S,2026-06-22T12:28:11.558208,15.33449690,.00008263,97.2849,206.3063,75.7296,284.4039,0,U,67664,999,2163,.57000185E-3,.18374E-3,0
STARLINK-36399,2026-022T,2026-06-22T01:26:30.223392,15.33444544,.00011952,97.2846,205.8599,112.1643,247.9726,0,U,67665,999,2156,.42142827E-3,.13554E-3,0
STARLINK-36365,2026-022U,2026-06-22T16:58:20.979264,15.33454452,.00006806,97.2839,206.5109,74.7636,285.3682,0,U,67666,999,2166,.62679345E-3,.2022E-3,0
STARLINK-36622,2026-022V,2026-06-22T08:56:46.794048,15.33417513,.00011077,97.2857,206.1996,100.2032,259.9336,0,U,67667,999,2161,.20891079E-3,.6669E-4,0
STARLINK-36625,2026-022W,2026-06-22T08:45:00.819648,15.33452500,.00005697,97.2866,206.2114,168.2442,191.8814,0,U,67668,999,2161,.50522209E-3,.16274E-3,0
STARLINK-36639,2026-022X,2026-06-22T08:33:16.422048,15.33431761,.00016428,97.2841,206.2230,83.0653,277.0776,0,U,67669,999,2161,.29876335E-3,.9579E-4,0
STARLINK-36596,2026-022Y,2026-06-22T08:21:32.312160,15.33425290,.00006014,97.2867,206.2315,109.6186,250.5121,0,U,67670,999,2161,.14165779E-3,.4498E-4,0
STARLINK-36297,2026-022Z,2026-06-22T07:58:01.532352,15.33455382,.00010521,97.2842,206.2563,100.8606,259.2756,0,U,67671,999,2161,.48089783E-3,.15487E-3,0
STARLINK-36616,2026-022AA,2026-06-22T08:09:46.857024,15.33446592,.00011235,97.2844,206.2434,89.3471,270.7901,0,U,67672,999,2161,.30672451E-3,.9841E-4,0
STARLINK-36748,2026-025A,2026-06-22T17:38:37.024800,15.33454305,.00008811,97.2857,284.9807,103.2576,256.8765,0,U,67693,999,2211,.73003978E-3,.23574E-3,0
STARLINK-36753,2026-025B,2026-06-22T14:11:08.054016,15.33470252,.00004413,97.2824,284.7166,27.0010,333.1256,0,U,67694,999,2209,.9745208E-3,.31542E-3,0
STARLINK-36750,2026-025C,2026-06-22T19:55:38.949888,15.33481751,.00004513,97.2837,285.0065,85.7223,274.4071,0,U,67695,999,2212,.13178348E-2,.4276E-3,0
STARLINK-36401,2026-025D,2026-06-22T17:54:17.036064,15.33442338,.00009527,97.2832,284.9665,82.9567,277.1784,0,U,67696,999,2211,.53882878E-3,.17359E-3,0
STARLINK-36704,2026-025E,2026-06-22T13:24:07.341120,15.33444905,.0000249,97.2842,284.7629,257.4260,102.6955,0,U,67697,999,2208,.57784881E-3,.18626E-3,0
STARLINK-36697,2026-025F,2026-06-22T13:16:17.633568,15.33447094,.00010407,97.2857,284.7741,90.9000,269.2362,0,U,67698,999,2208,.57530543E-3,.18545E-3,0
STARLINK-36716,2026-025G,2026-06-22T14:03:16.666848,15.33449921,.00005551,97.2835,284.7261,66.6702,293.4599,0,U,67699,999,2209,.54574377E-3,.17587E-3,0
STARLINK-36712,2026-025H,2026-06-22T18:17:48.169248,15.33429835,.00004356,97.2821,284.9441,111.9237,248.2052,0,U,67700,999,2211,.62297831E-3,.20081E-3,0
STARLINK-36713,2026-025J,2026-06-22T18:41:15.931968,15.33452928,.00003339,97.2816,284.9225,122.9450,237.1825,0,U,67701,999,2212,.53369888E-3,.17198E-3,0
STARLINK-36695,2026-025K,2026-06-22T17:42:32.044032,15.33452957,.00006209,97.2842,284.9785,323.0111,37.1089,0,U,67702,999,2211,.6739412E-3,.2175E-3,0
STARLINK-36630,2026-025L,2026-06-22T13:20:12.533568,15.33447965,.0001005,97.2859,284.7670,89.8231,270.3127,0,U,67703,999,2208,.62403743E-3,.20127E-3,0
STARLINK-36338,2026-025M,2026-06-22T14:07:11.493408,15.33453633,.0000568,97.2826,284.7221,41.4140,318.7146,0,U,67704,999,2208,.56714531E-3,.18284E-3,0
STARLINK-36316,2026-025N,2026-06-22T13:55:26.688000,15.33442292,.00002729,97.2840,284.7316,79.3992,280.7281,0,U,67705,999,2208,.65285693E-3,.21058E-3,0
STARLINK-36707,2026-025P,2026-06-22T18:25:36.153984,15.33437683,.00005533,97.2845,284.9387,101.8335,258.2970,0,U,67706,999,2211,.50839956E-3,.1637E-3,0
STARLINK-36645,2026-025Q,2026-06-22T06:33:00.872064,15.33430216,.00005168,97.2841,284.5392,106.1788,253.9512,0,U,67707,999,2204,.60739674E-3,.19576E-3,0
STARLINK-36287,2026-025R,2026-06-22T06:48:40.618080,15.33444535,.00001349,97.2852,284.5289,103.7381,256.3877,0,U,67708,999,2205,.66669499E-3,.21509E-3,0
STARLINK-36698,2026-025S,2026-06-22T17:34:42.268224,15.33454701,.00003568,97.2851,284.9888,347.7859,12.3375,0,U,67709,999,2211,.85287603E-3,.27568E-3,0
